0 FENGYUN 1C DEB
1 31459U 99025BUX 13281.20649680  .00001186  00000-0  56742-3 0  3769
2 31459 098.1198 080.6416 0135034 313.7564 045.2478 14.16094357334741
0 FENGYUN 1C DEB
1 31459U 99025BUX 13283.67946620  .00001469  00000-0  69676-3 0  3771
2 31459 098.1202 082.8980 0136795 306.6162 052.2905 14.16104274335099
0 FENGYUN 1C DEB
1 31459U 99025BUX 13285.23388843  .00001604  00000-0  75911-3 0  3783
2 31459 098.1192 084.3193 0136763 302.4433 056.3597 14.16110255335313
0 FENGYUN 1C DEB
1 31459U 99025BUX 13286.22306738  .00001747  00000-0  82591-3 0  3797
2 31459 098.1210 085.2217 0136074 299.0689 059.7143 14.16114740335452
0 FENGYUN 1C DEB
1 31459U 99025BUX 13289.68517190  .00002084  00000-0  98024-3 0  3801
2 31459 098.1220 088.3781 0136964 288.9155 069.7664 14.16131600335943
0 FENGYUN 1C DEB
1 31459U 99025BUX 13292.22872742  .00002354  00000-0  11054-2 0  3810
2 31459 098.1204 090.7003 0136415 281.5848 077.0022 14.16145451336308
